sat12849
1 12849U 81094B   20046.76863989  .00000155  00000-0  13298-4 0  9992
2 12849  82.4947 139.3480 0900270 316.3345  36.9839 13.50610148873343
